O3B MPOWER F1           
1 54755U 22174A   23307.46580568 -.00000028  00000+0  00000+0 0  9998
2 54755   0.0524  19.1708 0005388 218.5662 121.3265  5.00118440 17493
